{
  "type": "FeatureCollection",
  "features": [
    {
      "type": "Feature",
      "properties": {
        "norad_id": 35015,
        "name": "COSMOS 2251 DEB",
        "group": "cosmos-2251-debris",
        "lat": 44.771869465947404,
        "lon": 16.07116292874607,
        "alt_km": 700.3900016098569,
        "timestamp": "2025-12-24T11:33:00.414467+00:00",
        "meta_object_name": "COSMOS 2251 DEB",
        "meta_object_id": "1993-036AGC",
        "meta_epoch": "2025-12-23T07:17:38.153184",
        "meta_mean_motion": 14.46929001,
        "meta_eccentricity": 0.00743884,
        "meta_inclination": 73.9467,
        "meta_ra_of_asc_node": 214.8805,
        "meta_arg_of_pericenter": 80.9203,
        "meta_mean_anomaly": 40.9447,
        "meta_ephemeris_type": 0,
        "meta_classification_type": "U",
        "meta_norad_cat_id": 35015,
        "meta_element_set_no": 999,
        "meta_rev_at_epoch": 65593,
        "meta_bstar": 0.00067668737,
        "meta_mean_motion_dot": 2.516e-05,
        "meta_mean_motion_ddot": 0,
        "tle_line1": "1 35015U 93036AGC 25357.30391381  .00002516  00000+0  67669-3 0  9995",
        "tle_line2": "2 35015  73.9467 214.8805 0074388  80.9203  40.9447 14.46929001655934"
      },
      "geometry": {
        "type": "Point",
        "coordinates": [
          16.07116292874607,
          44.771869465947404
        ]
      }
    },
    {
      "type": "Feature",
      "properties": {
        "norad_id": 35016,
        "name": "COSMOS 2251 DEB",
        "group": "cosmos-2251-debris",
        "lat": 13.442943053503313,
        "lon": -83.29177991299021,
        "alt_km": 856.5022799271701,
        "timestamp": "2025-12-24T11:33:00.414477+00:00",
        "meta_object_name": "COSMOS 2251 DEB",
        "meta_object_id": "1993-036AGD",
        "meta_epoch": "2025-12-21T05:33:15.838848",
        "meta_mean_motion": 14.35075882,
        "meta_eccentricity": 0.01140745,
        "meta_inclination": 73.9302,
        "meta_ra_of_asc_node": 278.7521,
        "meta_arg_of_pericenter": 193.9283,
        "meta_mean_anomaly": 317.5381,
        "meta_ephemeris_type": 0,
        "meta_classification_type": "U",
        "meta_norad_cat_id": 35016,
        "meta_element_set_no": 999,
        "meta_rev_at_epoch": 86904,
        "meta_bstar": 0.00026149228,
        "meta_mean_motion_dot": 7.75e-06,
        "meta_mean_motion_ddot": 0,
        "tle_line1": "1 35016U 93036AGD 25355.23143332  .00000775  00000+0  26149-3 0  9990",
        "tle_line2": "2 35016  73.9302 278.7521 0114074 193.9283 317.5381 14.35075882869043"
      },
      "geometry": {
        "type": "Point",
        "coordinates": [
          -83.29177991299021,
          13.442943053503313
        ]
      }
    },
    {
      "type": "Feature",
      "properties": {
        "norad_id": 35018,
        "name": "COSMOS 2251 DEB",
        "group": "cosmos-2251-debris",
        "lat": 49.50994478092993,
        "lon": -109.02290884427255,
        "alt_km": 1166.6245208370756,
        "timestamp": "2025-12-24T11:33:00.414487+00:00",
        "meta_object_name": "COSMOS 2251 DEB",
        "meta_object_id": "1993-036AGF",
        "meta_epoch": "2025-12-24T00:24:20.205792",
        "meta_mean_motion": 13.67137293,
        "meta_eccentricity": 0.0349035,
        "meta_inclination": 73.9762,
        "meta_ra_of_asc_node": 91.4105,
        "meta_arg_of_pericenter": 358.1355,
        "meta_mean_anomaly": 1.8432,
        "meta_ephemeris_type": 0,
        "meta_classification_type": "U",
        "meta_norad_cat_id": 35018,
        "meta_element_set_no": 999,
        "meta_rev_at_epoch": 83340,
        "meta_bstar": 0.00086997,
        "meta_mean_motion_dot": 1.088e-05,
        "meta_mean_motion_ddot": 0,
        "tle_line1": "1 35018U 93036AGF 25358.01690053  .00001088  00000+0  86997-3 0  9993",
        "tle_line2": "2 35018  73.9762  91.4105 0349035 358.1355   1.8432 13.67137293833405"
      },
      "geometry": {
        "type": "Point",
        "coordinates": [
          -109.02290884427255,
          49.50994478092993
        ]
      }
    },
    {
      "type": "Feature",
      "properties": {
        "norad_id": 35020,
        "name": "COSMOS 2251 DEB",
        "group": "cosmos-2251-debris",
        "lat": -19.464683668535123,
        "lon": 2.256326049212521,
        "alt_km": 685.6301561800747,
        "timestamp": "2025-12-24T11:33:00.414498+00:00",
        "meta_object_name": "COSMOS 2251 DEB",
        "meta_object_id": "1993-036AGH",
        "meta_epoch": "2025-12-23T11:39:00.021888",
        "meta_mean_motion": 14.62820598,
        "meta_eccentricity": 0.0091264,
        "meta_inclination": 74.045,
        "meta_ra_of_asc_node": 178.3605,
        "meta_arg_of_pericenter": 289.9711,
        "meta_mean_anomaly": 69.1644,
        "meta_ephemeris_type": 0,
        "meta_classification_type": "U",
        "meta_norad_cat_id": 35020,
        "meta_element_set_no": 999,
        "meta_rev_at_epoch": 88395,
        "meta_bstar": 0.00013388,
        "meta_mean_motion_dot": 6.91e-06,
        "meta_mean_motion_ddot": 0,
        "tle_line1": "1 35020U 93036AGH 25357.48541692  .00000691  00000+0  13388-3 0  9993",
        "tle_line2": "2 35020  74.0450 178.3605 0091264 289.9711  69.1644 14.62820598883959"
      },
      "geometry": {
        "type": "Point",
        "coordinates": [
          2.256326049212521,
          -19.464683668535123
        ]
      }
    },
    {
      "type": "Feature",
      "properties": {
        "norad_id": 35022,
        "name": "COSMOS 2251 DEB",
        "group": "cosmos-2251-debris",
        "lat": 8.955595359318375,
        "lon": 116.89494419981213,
        "alt_km": 664.875514094153,
        "timestamp": "2025-12-24T11:33:00.414508+00:00",
        "meta_object_name": "COSMOS 2251 DEB",
        "meta_object_id": "1993-036AGK",
        "meta_epoch": "2025-12-23T05:11:29.419872",
        "meta_mean_motion": 14.6087455,
        "meta_eccentricity": 0.00462541,
        "meta_inclination": 74.028,
        "meta_ra_of_asc_node": 301.8992,
        "meta_arg_of_pericenter": 138.376,
        "meta_mean_anomaly": 222.0943,
        "meta_ephemeris_type": 0,
        "meta_classification_type": "U",
        "meta_norad_cat_id": 35022,
        "meta_element_set_no": 999,
        "meta_rev_at_epoch": 59296,
        "meta_bstar": 0.00044697282,
        "meta_mean_motion_dot": 2.19e-05,
        "meta_mean_motion_ddot": 0,
        "tle_line1": "1 35022U 93036AGK 25357.21631273  .00002190  00000+0  44697-3 0  9994",
        "tle_line2": "2 35022  74.0280 301.8992 0046254 138.3760 222.0943 14.60874550592969"
      },
      "geometry": {
        "type": "Point",
        "coordinates": [
          116.89494419981213,
          8.955595359318375
        ]
      }
    },
    {
      "type": "Feature",
      "properties": {
        "norad_id": 35023,
        "name": "COSMOS 2251 DEB",
        "group": "cosmos-2251-debris",
        "lat": -1.3026219323672092,
        "lon": -171.4718359229216,
        "alt_km": 585.3241419455562,
        "timestamp": "2025-12-24T11:33:00.414518+00:00",
        "meta_object_name": "COSMOS 2251 DEB",
        "meta_object_id": "1993-036AGL",
        "meta_epoch": "2025-12-23T23:23:24.047232",
        "meta_mean_motion": 14.95423694,
        "meta_eccentricity": 0.0033581,
        "meta_inclination": 74.0361,
        "meta_ra_of_asc_node": 189.9231,
        "meta_arg_of_pericenter": 266.1262,
        "meta_mean_anomaly": 245.7203,
        "meta_ephemeris_type": 0,
        "meta_classification_type": "U",
        "meta_norad_cat_id": 35023,
        "meta_element_set_no": 999,
        "meta_rev_at_epoch": 88447,
        "meta_bstar": 0.0015054,
        "meta_mean_motion_dot": 0.00016832,
        "meta_mean_motion_ddot": 0,
        "tle_line1": "1 35023U 93036AGL 25357.97458388  .00016832  00000+0  15054-2 0  9994",
        "tle_line2": "2 35023  74.0361 189.9231 0033581 266.1262 245.7203 14.95423694884475"
      },
      "geometry": {
        "type": "Point",
        "coordinates": [
          -171.4718359229216,
          -1.3026219323672092
        ]
      }
    },
    {
      "type": "Feature",
      "properties": {
        "norad_id": 35025,
        "name": "COSMOS 2251 DEB",
        "group": "cosmos-2251-debris",
        "lat": -19.961584842895505,
        "lon": -134.07018397668367,
        "alt_km": 676.8085197760993,
        "timestamp": "2025-12-24T11:33:00.414529+00:00",
        "meta_object_name": "COSMOS 2251 DEB",
        "meta_object_id": "1993-036AGN",
        "meta_epoch": "2025-12-24T02:28:58.594080",
        "meta_mean_motion": 14.7276366,
        "meta_eccentricity": 0.0085666,
        "meta_inclination": 73.9377,
        "meta_ra_of_asc_node": 40.6629,
        "meta_arg_of_pericenter": 311.0935,
        "meta_mean_anomaly": 48.2859,
        "meta_ephemeris_type": 0,
        "meta_classification_type": "U",
        "meta_norad_cat_id": 35025,
        "meta_element_set_no": 999,
        "meta_rev_at_epoch": 88810,
        "meta_bstar": 0.00042527,
        "meta_mean_motion_dot": 2.843e-05,
        "meta_mean_motion_ddot": 0,
        "tle_line1": "1 35025U 93036AGN 25358.10345595  .00002843  00000+0  42527-3 0  9990",
        "tle_line2": "2 35025  73.9377  40.6629 0085666 311.0935  48.2859 14.72763660888106"
      },
      "geometry": {
        "type": "Point",
        "coordinates": [
          -134.07018397668367,
          -19.961584842895505
        ]
      }
    }
  ]
}